ONEWEB-0567             
1 55147U 23004H   23059.58334491 -.00006462  00000+0 -11932-2 0  9994
2 55147  86.6227 264.0647 0016019  60.0063 312.6091 14.65665341  1303
ONEWEB-0567             
1 55147U 23004H   23059.75001157 -.00044508  00000+0 -82379-2 0  9999
2 55147  86.6228 263.9951 0015967  59.2834 112.1550 14.65674667  7510
ONEWEB-0567             
1 55147U 23004H   23059.91667824  .00150209  00000+0  27030-1 0  9992
2 55147  86.6227 263.9262 0016146  58.8850 271.3915 14.65599497  1308
ONEWEB-0567             
1 55147U 23004H   23060.25001157 -.00041974  00000+0 -77536-2 0  9999
2 55147  86.6226 263.7899 0016335  58.4095 229.4899 14.65743276  7585
ONEWEB-0567             
1 55147U 23004H   23060.91667824 -.00059454  00000+0 -11014-1 0  9991
2 55147  86.6224 263.5143 0016157  55.9718 147.3860 14.65726458  1302
ONEWEB-0567             
1 55147U 23004H   23060.91667824 -.00059454  00000+0 -11014-1 0  9991
2 55147  86.6224 263.5143 0016157  55.9718 147.3860 14.65726458  7689
ONEWEB-0567             
1 55147U 23004H   23061.08296378  .00005694  00000+0  10405-2 0  9991
2 55147  86.6223 263.4464 0016088  55.2344 305.0381 14.65697407  7710
ONEWEB-0567             
1 55147U 23004H   23061.83399122  .00000681  00000+0  12070-3 0  9997
2 55147  86.6224 263.1368 0015899  52.6675 307.5984 14.65664805  7822
ONEWEB-0567             
1 55147U 23004H   23062.44844432  .00000597  00000+0  10533-3 0  9992
2 55147  86.6223 262.8835 0015842  50.8556 309.4063 14.65667035  7919
ONEWEB-0567             
1 55147U 23004H   23062.51671738  .00000562  00000+0  98855-4 0  9993
2 55147  86.6223 262.8554 0015828  50.6346 309.6267 14.65666401  7921
ONEWEB-0567             
1 55147U 23004H   23062.92634502 -.00003078  00000+0 -57013-3 0  9993
2 55147  86.6222 262.6866 0015896  49.6469 310.6129 14.65683379  7981
